OBJECT_NAME,OBJECT_ID,EPOCH,MEAN_MOTION,ECCENTRICITY,INCLINATION,RA_OF_ASC_NODE,ARG_OF_PERICENTER,MEAN_ANOMALY,EPHEMERIS_TYPE,CLASSIFICATION_TYPE,NORAD_CAT_ID,ELEMENT_SET_NO,REV_AT_EPOCH,BSTAR,MEAN_MOTION_DOT,MEAN_MOTION_DDOT
DMSP 5D-3 F16 (USA 172),2003-048A,2026-07-21T06:14:18.354624,14.14484708,.00079793,98.9887,226.3125,56.3274,6.6000,0,U,28054,999,17430,-.1870258E-5,-.49E-6,0
METEOSAT-9 (MSG-2),2005-049B,2026-07-21T04:44:38.674176,1.00275570,.00024674,9.4364,53.8277,359.6025,2.3892,0,U,28912,999,734,0,.118E-5,0
DMSP 5D-3 F17 (USA 191),2006-050A,2026-07-21T06:03:34.697088,14.14996429,.00093843,98.7390,208.1271,324.7041,35.3510,0,U,29522,999,1724,.14930887E-4,-.14E-6,0
FENGYUN 3A,2008-026A,2026-07-20T19:24:45.466848,14.19577262,.00094542,98.6886,142.0143,37.1178,323.0651,0,U,32958,999,94017,.37299227E-4,.35E-6,0
EWS-G3 (GOES 14),2009-033A,2026-07-21T06:48:46.143360,1.00095523,.00021793,1.7754,82.6222,38.8378,41.0157,0,U,35491,999,693,0,-.359E-5,0
DMSP 5D-3 F18 (USA 210),2009-057A,2026-07-21T05:25:24.627936,14.14914566,.00115662,98.9062,182.9253,148.9131,211.2729,0,U,35951,999,86440,.14165097E-3,.229E-5,0
EWS-G2 (GOES 15),2010-008A,2026-07-21T03:06:54.802944,1.00269530,.00054685,1.3691,82.3970,53.6918,272.7805,0,U,36411,999,5997,0,.22E-6,0
COMS 1,2010-032A,2026-07-21T00:21:38.623104,0.99166581,.00114543,4.8900,74.9483,15.1593,153.0036,0,U,36744,999,5142,0,-.183E-5,0
FENGYUN 3B,2010-059A,2026-07-21T07:40:33.179808,14.14848181,.00232297,98.9601,248.4758,90.2349,333.2642,0,U,37214,999,81225,-.20151517E-4,-.84E-6,0
SUOMI NPP,2011-061A,2026-07-21T05:51:44.629920,14.19523533,.00010581,98.7956,142.8890,186.9095,173.2067,0,U,37849,999,76327,.46138165E-4,.53E-6,0
METEOSAT-10 (MSG-3),2012-035B,2026-07-21T06:14:19.445856,1.00272760,.00014406,4.7503,60.8516,18.6196,313.1782,0,U,38552,999,5119,0,-.9E-7,0
METOP-B,2012-049A,2026-07-21T06:12:38.297376,14.21447560,.0001324,98.6485,253.0749,223.4327,136.6746,0,U,38771,999,71810,.42767279E-4,.5E-6,0
INSAT-3D,2013-038B,2026-07-21T06:51:08.415648,1.00273485,.00010771,2.0120,82.1114,42.3817,46.8388,0,U,39216,999,4742,0,-.339E-5,0
FENGYUN 3C,2013-052A,2026-07-21T05:59:34.332288,14.15761665,.00134876,98.5005,174.5650,287.2083,72.7615,0,U,39260,999,66338,.55504711E-4,.68E-6,0
METEOR-M 2,2014-037A,2026-07-21T06:49:53.824800,14.21470426,.00047796,98.5143,176.8197,306.5671,53.5067,0,U,40069,999,62416,.95110986E-4,.166E-5,0
HIMAWARI-8,2014-060A,2026-07-21T06:54:23.105088,1.00271251,.00012984,0.0426,261.2075,255.8367,26.2534,0,U,40267,999,4310,0,-.275E-5,0
FENGYUN 2G,2014-090A,2026-07-19T15:21:36.356832,1.00279249,.00039431,5.7192,72.4242,173.6464,21.2039,0,U,40367,999,4232,0,-.309E-5,0
METEOSAT-11 (MSG-4),2015-034A,2026-07-21T06:16:56.694720,1.00273754,.00020142,3.2836,70.8880,355.3952,336.2509,0,U,40732,999,755,0,.61E-6,0
ELEKTRO-L 2,2015-074A,2026-07-20T23:19:28.227072,1.00272386,.00007868,6.7770,70.1076,227.5423,336.4661,0,U,41105,999,3884,0,-.122E-5,0
SENTINEL-3A,2016-011A,2026-07-21T05:30:31.477536,14.26740922,.00013057,98.6232,269.1213,88.8236,271.3094,0,U,41335,999,54291,.39132581E-4,.51E-6,0
INSAT-3DR,2016-054A,2026-07-21T04:52:37.908192,1.00271560,.0010312,0.0846,89.1002,180.3976,176.6093,0,U,41752,999,3615,0,-.76E-6,0
HIMAWARI-9,2016-064A,2026-07-21T06:54:23.105088,1.00270835,.00014561,0.0179,293.5685,215.8695,33.9441,0,U,41836,999,3555,0,-.274E-5,0
GOES 16,2016-071A,2026-07-21T05:49:54.769728,1.00271726,.00006703,0.4191,85.4501,73.4244,122.9073,0,U,41866,999,3544,0,-.9E-6,0
FENGYUN 4A,2016-077A,2026-07-21T06:49:31.072224,1.00265504,.00081479,2.4072,79.8968,159.4928,285.6796,0,U,41882,999,3527,0,-.358E-5,0
CYGFM05,2016-078A,2026-07-21T05:12:33.209856,15.58052903,.00052984,34.9575,34.9983,103.9113,256.2201,0,U,41884,999,53406,.26142864E-3,.20304E-3,0
CYGFM04,2016-078B,2026-07-21T03:22:52.011264,15.63342786,.00043363,34.9332,1.4107,154.6483,205.4457,0,U,41885,999,53431,.28683216E-3,.27357E-3,0
CYGFM02,2016-078C,2026-07-20T16:34:26.293440,15.66648843,.00050318,34.9411,357.9232,150.2375,209.8639,0,U,41886,999,53442,.26335175E-3,.28676E-3,0
CYGFM01,2016-078D,2026-07-20T19:20:48.075936,15.58760852,.000515,34.9404,38.5009,91.0871,269.0444,0,U,41887,999,53395,.2494162E-3,.19896E-3,0
CYGFM08,2016-078E,2026-07-20T18:27:45.593280,15.61678238,.00059928,34.9439,17.3993,130.9549,229.1696,0,U,41888,999,53422,.24893653E-3,.22229E-3,0
CYGFM07,2016-078G,2026-07-20T15:53:41.234784,15.61782712,.00047135,34.9455,6.4248,148.0237,212.0775,0,U,41890,999,53423,.23649273E-3,.21192E-3,0
CYGFM03,2016-078H,2026-07-20T16:44:19.953888,15.61770161,.00043453,34.9410,8.1183,130.9389,229.1713,0,U,41891,999,53421,.24108871E-3,.21593E-3,0
